[{"OBJECT_NAME":"STARLINK-35406","OBJECT_ID":"2025-218E","EPOCH":"2026-02-26T03:56:15.695520","MEAN_MOTION":15.05643284,"ECCENTRICITY":0.00025864,"INCLINATION":97.6035,"RA_OF_ASC_NODE":281.565,"ARG_OF_PERICENTER":78.9014,"MEAN_ANOMALY":281.2503,"EPHEMERIS_TYPE":0,"CLASSIFICATION_TYPE":"U","NORAD_CAT_ID":65795,"ELEMENT_SET_NO":999,"REV_AT_EPOCH":2323,"BSTAR":0.00011176644,"MEAN_MOTION_DOT":1.552e-5,"MEAN_MOTION_DDOT":0},{"OBJECT_NAME":"STARLINK-35390","OBJECT_ID":"2025-218F","EPOCH":"2026-02-26T04:56:05.563680","MEAN_MOTION":15.05654067,"ECCENTRICITY":0.00023784,"INCLINATION":97.6025,"RA_OF_ASC_NODE":281.6649,"ARG_OF_PERICENTER":81.8463,"MEAN_ANOMALY":278.3033,"EPHEMERIS_TYPE":0,"CLASSIFICATION_TYPE":"U","NORAD_CAT_ID":65796,"ELEMENT_SET_NO":999,"REV_AT_EPOCH":2324,"BSTAR":0.00025856028,"MEAN_MOTION_DOT":3.672e-5,"MEAN_MOTION_DDOT":0},{"OBJECT_NAME":"STARLINK-35412","OBJECT_ID":"2025-218G","EPOCH":"2026-02-26T04:32:10.756032","MEAN_MOTION":15.05664173,"ECCENTRICITY":0.00014774,"INCLINATION":97.6019,"RA_OF_ASC_NODE":281.6883,"ARG_OF_PERICENTER":94.8385,"MEAN_ANOMALY":265.3011,"EPHEMERIS_TYPE":0,"CLASSIFICATION_TYPE":"U","NORAD_CAT_ID":65797,"ELEMENT_SET_NO":999,"REV_AT_EPOCH":2324,"BSTAR":0.00022483725,"MEAN_MOTION_DOT":3.186e-5,"MEAN_MOTION_DDOT":0},{"OBJECT_NAME":"STARLINK-35414","OBJECT_ID":"2025-218H","EPOCH":"2026-02-26T03:44:18.932352","MEAN_MOTION":15.05651449,"ECCENTRICITY":0.00028426,"INCLINATION":97.6037,"RA_OF_ASC_NODE":281.5775,"ARG_OF_PERICENTER":75.0081,"MEAN_ANOMALY":285.1461,"EPHEMERIS_TYPE":0,"CLASSIFICATION_TYPE":"U","NORAD_CAT_ID":65798,"ELEMENT_SET_NO":999,"REV_AT_EPOCH":2323,"BSTAR":0.00020706855,"MEAN_MOTION_DOT":2.928e-5,"MEAN_MOTION_DDOT":0},{"OBJECT_NAME":"STARLINK-35357","OBJECT_ID":"2025-218J","EPOCH":"2026-02-26T03:52:17.029344","MEAN_MOTION":15.05664492,"ECCENTRICITY":0.00019861,"INCLINATION":97.6042,"RA_OF_ASC_NODE":281.569,"ARG_OF_PERICENTER":84.7471,"MEAN_ANOMALY":275.3982,"EPHEMERIS_TYPE":0,"CLASSIFICATION_TYPE":"U","NORAD_CAT_ID":65799,"ELEMENT_SET_NO":999,"REV_AT_EPOCH":2323,"BSTAR":0.0007910458,"MEAN_MOTION_DOT":0.00011376,"MEAN_MOTION_DDOT":0},{"OBJECT_NAME":"STARLINK-35300","OBJECT_ID":"2025-218K","EPOCH":"2026-02-26T04:16:11.260704","MEAN_MOTION":15.05645277,"ECCENTRICITY":0.00017997,"INCLINATION":97.602,"RA_OF_ASC_NODE":281.5482,"ARG_OF_PERICENTER":93.947,"MEAN_ANOMALY":266.1963,"EPHEMERIS_TYPE":0,"CLASSIFICATION_TYPE":"U","NORAD_CAT_ID":65800,"ELEMENT_SET_NO":999,"REV_AT_EPOCH":2323,"BSTAR":-8.8162359e-5,"MEAN_MOTION_DOT":-1.333e-5,"MEAN_MOTION_DDOT":0},{"OBJECT_NAME":"STARLINK-35296","OBJECT_ID":"2025-218L","EPOCH":"2026-02-26T04:40:08.756256","MEAN_MOTION":15.05651998,"ECCENTRICITY":0.00023549,"INCLINATION":97.6017,"RA_OF_ASC_NODE":281.6802,"ARG_OF_PERICENTER":83.6036,"MEAN_ANOMALY":276.5459,"EPHEMERIS_TYPE":0,"CLASSIFICATION_TYPE":"U","NORAD_CAT_ID":65801,"ELEMENT_SET_NO":999,"REV_AT_EPOCH":2324,"BSTAR":0.00027338477,"MEAN_MOTION_DOT":3.886e-5,"MEAN_MOTION_DDOT":0},{"OBJECT_NAME":"STARLINK-34919","OBJECT_ID":"2025-218M","EPOCH":"2026-02-26T05:04:02.025984","MEAN_MOTION":15.05699581,"ECCENTRICITY":0.00023015,"INCLINATION":97.6025,"RA_OF_ASC_NODE":281.6571,"ARG_OF_PERICENTER":87.3328,"MEAN_ANOMALY":272.8162,"EPHEMERIS_TYPE":0,"CLASSIFICATION_TYPE":"U","NORAD_CAT_ID":65802,"ELEMENT_SET_NO":999,"REV_AT_EPOCH":2324,"BSTAR":0.001176443,"MEAN_MOTION_DOT":0.00016978,"MEAN_MOTION_DDOT":0},{"OBJECT_NAME":"STARLINK-35286","OBJECT_ID":"2025-218N","EPOCH":"2026-02-26T04:12:13.080960","MEAN_MOTION":15.05649215,"ECCENTRICITY":0.00017559,"INCLINATION":97.6024,"RA_OF_ASC_NODE":281.5514,"ARG_OF_PERICENTER":91.2094,"MEAN_ANOMALY":268.9334,"EPHEMERIS_TYPE":0,"CLASSIFICATION_TYPE":"U","NORAD_CAT_ID":65803,"ELEMENT_SET_NO":999,"REV_AT_EPOCH":2323,"BSTAR":0.00032024381,"MEAN_MOTION_DOT":4.563e-5,"MEAN_MOTION_DDOT":0},{"OBJECT_NAME":"STARLINK-35266","OBJECT_ID":"2025-218P","EPOCH":"2026-02-26T04:04:14.741184","MEAN_MOTION":15.0565371,"ECCENTRICITY":0.00019413,"INCLINATION":97.6016,"RA_OF_ASC_NODE":281.5601,"ARG_OF_PERICENTER":80.6918,"MEAN_ANOMALY":279.4528,"EPHEMERIS_TYPE":0,"CLASSIFICATION_TYPE":"U","NORAD_CAT_ID":65804,"ELEMENT_SET_NO":999,"REV_AT_EPOCH":2323,"BSTAR":5.7075781e-5,"MEAN_MOTION_DOT":7.63e-6,"MEAN_MOTION_DDOT":0},{"OBJECT_NAME":"STARLINK-35273","OBJECT_ID":"2025-218Q","EPOCH":"2026-02-26T04:00:16.488000","MEAN_MOTION":15.05675865,"ECCENTRICITY":0.00020041,"INCLINATION":97.6038,"RA_OF_ASC_NODE":281.5624,"ARG_OF_PERICENTER":63.7101,"MEAN_ANOMALY":296.4332,"EPHEMERIS_TYPE":0,"CLASSIFICATION_TYPE":"U","NORAD_CAT_ID":65805,"ELEMENT_SET_NO":999,"REV_AT_EPOCH":2323,"BSTAR":0.001258443,"MEAN_MOTION_DOT":0.00018157,"MEAN_MOTION_DDOT":0},{"OBJECT_NAME":"STARLINK-35047","OBJECT_ID":"2025-218R","EPOCH":"2026-02-26T03:40:19.873920","MEAN_MOTION":15.05653684,"ECCENTRICITY":0.00024773,"INCLINATION":97.6033,"RA_OF_ASC_NODE":281.582,"ARG_OF_PERICENTER":78.9028,"MEAN_ANOMALY":281.2477,"EPHEMERIS_TYPE":0,"CLASSIFICATION_TYPE":"U","NORAD_CAT_ID":65806,"ELEMENT_SET_NO":999,"REV_AT_EPOCH":2323,"BSTAR":0.00031484669,"MEAN_MOTION_DOT":4.486e-5,"MEAN_MOTION_DDOT":0},{"OBJECT_NAME":"STARLINK-35285","OBJECT_ID":"2025-218S","EPOCH":"2026-02-26T03:48:17.980416","MEAN_MOTION":15.05650215,"ECCENTRICITY":0.00019706,"INCLINATION":97.6039,"RA_OF_ASC_NODE":281.5736,"ARG_OF_PERICENTER":83.2595,"MEAN_ANOMALY":276.8856,"EPHEMERIS_TYPE":0,"CLASSIFICATION_TYPE":"U","NORAD_CAT_ID":65807,"ELEMENT_SET_NO":999,"REV_AT_EPOCH":2323,"BSTAR":0.00019430492,"MEAN_MOTION_DOT":2.744e-5,"MEAN_MOTION_DDOT":0},{"OBJECT_NAME":"STARLINK-34580","OBJECT_ID":"2025-218T","EPOCH":"2026-02-26T05:12:02.418624","MEAN_MOTION":15.05655068,"ECCENTRICITY":0.00022769,"INCLINATION":97.6031,"RA_OF_ASC_NODE":281.6508,"ARG_OF_PERICENTER":65.9112,"MEAN_ANOMALY":294.2352,"EPHEMERIS_TYPE":0,"CLASSIFICATION_TYPE":"U","NORAD_CAT_ID":65808,"ELEMENT_SET_NO":999,"REV_AT_EPOCH":2324,"BSTAR":0.00027681796,"MEAN_MOTION_DOT":3.936e-5,"MEAN_MOTION_DDOT":0},{"OBJECT_NAME":"STARLINK-35289","OBJECT_ID":"2025-218U","EPOCH":"2026-02-26T03:24:22.824576","MEAN_MOTION":15.05650323,"ECCENTRICITY":0.0002243,"INCLINATION":97.6028,"RA_OF_ASC_NODE":281.5959,"ARG_OF_PERICENTER":81.7343,"MEAN_ANOMALY":278.4138,"EPHEMERIS_TYPE":0,"CLASSIFICATION_TYPE":"U","NORAD_CAT_ID":65809,"ELEMENT_SET_NO":999,"REV_AT_EPOCH":2323,"BSTAR":0.00015329445,"MEAN_MOTION_DOT":2.152e-5,"MEAN_MOTION_DDOT":0},{"OBJECT_NAME":"STARLINK-35268","OBJECT_ID":"2025-218V","EPOCH":"2026-02-26T04:48:07.116768","MEAN_MOTION":15.0565295,"ECCENTRICITY":0.00025327,"INCLINATION":97.6022,"RA_OF_ASC_NODE":281.6715,"ARG_OF_PERICENTER":85.8139,"MEAN_ANOMALY":274.3377,"EPHEMERIS_TYPE":0,"CLASSIFICATION_TYPE":"U","NORAD_CAT_ID":65810,"ELEMENT_SET_NO":999,"REV_AT_EPOCH":2324,"BSTAR":0.00021442203,"MEAN_MOTION_DOT":3.035e-5,"MEAN_MOTION_DDOT":0},{"OBJECT_NAME":"STARLINK-35224","OBJECT_ID":"2025-218W","EPOCH":"2026-02-26T04:52:07.643136","MEAN_MOTION":15.05643616,"ECCENTRICITY":0.00023794,"INCLINATION":97.6018,"RA_OF_ASC_NODE":281.6686,"ARG_OF_PERICENTER":76.5002,"MEAN_ANOMALY":283.649,"EPHEMERIS_TYPE":0,"CLASSIFICATION_TYPE":"U","NORAD_CAT_ID":65811,"ELEMENT_SET_NO":999,"REV_AT_EPOCH":2324,"BSTAR":0.00028133004,"MEAN_MOTION_DOT":4.0e-5,"MEAN_MOTION_DDOT":0},{"OBJECT_NAME":"STARLINK-35271","OBJECT_ID":"2025-218X","EPOCH":"2026-02-26T04:36:09.505152","MEAN_MOTION":15.05652132,"ECCENTRICITY":0.00022229,"INCLINATION":97.6011,"RA_OF_ASC_NODE":281.6852,"ARG_OF_PERICENTER":79.0253,"MEAN_ANOMALY":281.1224,"EPHEMERIS_TYPE":0,"CLASSIFICATION_TYPE":"U","NORAD_CAT_ID":65812,"ELEMENT_SET_NO":999,"REV_AT_EPOCH":2324,"BSTAR":0.00021933017,"MEAN_MOTION_DOT":3.106e-5,"MEAN_MOTION_DDOT":0},{"OBJECT_NAME":"STARLINK-35215","OBJECT_ID":"2025-218Y","EPOCH":"2026-02-26T04:28:10.705728","MEAN_MOTION":15.05682544,"ECCENTRICITY":0.00016775,"INCLINATION":97.6018,"RA_OF_ASC_NODE":281.6914,"ARG_OF_PERICENTER":49.362,"MEAN_ANOMALY":310.7753,"EPHEMERIS_TYPE":0,"CLASSIFICATION_TYPE":"U","NORAD_CAT_ID":65813,"ELEMENT_SET_NO":999,"REV_AT_EPOCH":2324,"BSTAR":0.0010859846,"MEAN_MOTION_DOT":0.00015657,"MEAN_MOTION_DDOT":0},{"OBJECT_NAME":"STARLINK-35157","OBJECT_ID":"2025-218Z","EPOCH":"2026-02-26T04:24:11.816640","MEAN_MOTION":15.05654744,"ECCENTRICITY":0.0002048,"INCLINATION":97.6012,"RA_OF_ASC_NODE":281.6966,"ARG_OF_PERICENTER":79.371,"MEAN_ANOMALY":280.7747,"EPHEMERIS_TYPE":0,"CLASSIFICATION_TYPE":"U","NORAD_CAT_ID":65814,"ELEMENT_SET_NO":999,"REV_AT_EPOCH":2324,"BSTAR":0.00026741331,"MEAN_MOTION_DOT":3.8e-5,"MEAN_MOTION_DDOT":0},{"OBJECT_NAME":"STARLINK-35392","OBJECT_ID":"2025-221A","EPOCH":"2026-02-26T05:27:37.305504","MEAN_MOTION":15.30222419,"ECCENTRICITY":0.00015941,"INCLINATION":53.1589,"RA_OF_ASC_NODE":141.9311,"ARG_OF_PERICENTER":93.4561,"MEAN_ANOMALY":266.6622,"EPHEMERIS_TYPE":0,"CLASSIFICATION_TYPE":"U","NORAD_CAT_ID":65823,"ELEMENT_SET_NO":999,"REV_AT_EPOCH":2432,"BSTAR":0.0011992912,"MEAN_MOTION_DOT":0.00035354,"MEAN_MOTION_DDOT":0},{"OBJECT_NAME":"STARLINK-35281","OBJECT_ID":"2025-221B","EPOCH":"2026-02-26T05:32:10.856544","MEAN_MOTION":15.30212943,"ECCENTRICITY":0.00015464,"INCLINATION":53.1592,"RA_OF_ASC_NODE":141.9493,"ARG_OF_PERICENTER":98.733,"MEAN_ANOMALY":261.3846,"EPHEMERIS_TYPE":0,"CLASSIFICATION_TYPE":"U","NORAD_CAT_ID":65824,"ELEMENT_SET_NO":999,"REV_AT_EPOCH":2432,"BSTAR":0.00078842115,"MEAN_MOTION_DOT":0.00023074,"MEAN_MOTION_DDOT":0},{"OBJECT_NAME":"STARLINK-35397","OBJECT_ID":"2025-221C","EPOCH":"2026-02-26T06:22:09.639840","MEAN_MOTION":15.30219826,"ECCENTRICITY":0.00010394,"INCLINATION":53.1592,"RA_OF_ASC_NODE":141.4563,"ARG_OF_PERICENTER":105.3599,"MEAN_ANOMALY":254.7517,"EPHEMERIS_TYPE":0,"CLASSIFICATION_TYPE":"U","NORAD_CAT_ID":65825,"ELEMENT_SET_NO":999,"REV_AT_EPOCH":2433,"BSTAR":0.00080284258,"MEAN_MOTION_DOT":0.00023509,"MEAN_MOTION_DDOT":0}]
